{
  "links" : {
    "next" : "https://api.nasa.gov/neo/rest/v1/feed?start_date=2007-01-09&end_date=2007-01-09&detailed=true&api_key=t0TVs3DtDT2H8Oy2Zy8m2eVrNsAVKAexjcZXUckd",
    "prev" : "https://api.nasa.gov/neo/rest/v1/feed?start_date=2007-01-07&end_date=2007-01-07&detailed=true&api_key=t0TVs3DtDT2H8Oy2Zy8m2eVrNsAVKAexjcZXUckd",
    "self" : "https://api.nasa.gov/neo/rest/v1/feed?start_date=2007-01-08&end_date=2007-01-08&detailed=true&api_key=t0TVs3DtDT2H8Oy2Zy8m2eVrNsAVKAexjcZXUckd"
  },
  "element_count" : 5,
  "near_earth_objects" : {
    "2007-01-08" : [ {
      "links" : {
        "self" : "https://api.nasa.gov/neo/rest/v1/neo/3625335?api_key=t0TVs3DtDT2H8Oy2Zy8m2eVrNsAVKAexjcZXUckd"
      },
      "neo_reference_id" : "3625335",
      "name" : "(2013 BC70)",
      "nasa_jpl_url" : "http://ssd.jpl.nasa.gov/sbdb.cgi?sstr=3625335",
      "absolute_magnitude_h" : 24.2,
      "estimated_diameter" : {
        "kilometers" : {
          "estimated_diameter_min" : 0.0384197891,
          "estimated_diameter_max" : 0.0859092601
        },
        "meters" : {
          "estimated_diameter_min" : 38.4197891064,
          "estimated_diameter_max" : 85.9092601232
        },
        "miles" : {
          "estimated_diameter_min" : 0.0238729428,
          "estimated_diameter_max" : 0.0533815229
        },
        "feet" : {
          "estimated_diameter_min" : 126.0491808919,
          "estimated_diameter_max" : 281.8545369825
        }
      },
      "is_potentially_hazardous_asteroid" : false,
      "close_approach_data" : [ {
        "close_approach_date" : "2007-01-08",
        "epoch_date_close_approach" : 1168243200000,
        "relative_velocity" : {
          "kilometers_per_second" : "13.5731372261",
          "kilometers_per_hour" : "48863.2940138945",
          "miles_per_hour" : "30361.7506610224"
        },
        "miss_distance" : {
          "astronomical" : "0.0670922582",
          "lunar" : "26.0988864899",
          "kilometers" : "10036859",
          "miles" : "6236615"
        },
        "orbiting_body" : "Earth"
      } ],
      "orbital_data" : {
        "orbit_id" : "10",
        "orbit_determination_date" : "2017-04-06 08:47:00",
        "orbit_uncertainty" : "0",
        "minimum_orbit_intersection" : ".00107446",
        "jupiter_tisserand_invariant" : "4.864",
        "epoch_osculation" : "2458000.5",
        "eccentricity" : ".4212232802585384",
        "semi_major_axis" : "1.309004181637623",
        "inclination" : "12.1448906899224",
        "ascending_node_longitude" : "123.8560335681422",
        "orbital_period" : "547.0285305109846",
        "perihelion_distance" : ".7576211463760797",
        "perihelion_argument" : "262.083430601225",
        "aphelion_distance" : "1.860387216899166",
        "perihelion_time" : "2457883.197186438344",
        "mean_anomaly" : "77.1970939847501",
        "mean_motion" : ".6581009580317878",
        "equinox" : "J2000"
      }
    }, {
      "links" : {
        "self" : "https://api.nasa.gov/neo/rest/v1/neo/3725152?api_key=t0TVs3DtDT2H8Oy2Zy8m2eVrNsAVKAexjcZXUckd"
      },
      "neo_reference_id" : "3725152",
      "name" : "(2015 PK9)",
      "nasa_jpl_url" : "http://ssd.jpl.nasa.gov/sbdb.cgi?sstr=3725152",
      "absolute_magnitude_h" : 23.7,
      "estimated_diameter" : {
        "kilometers" : {
          "estimated_diameter_min" : 0.0483676488,
          "estimated_diameter_max" : 0.1081533507
        },
        "meters" : {
          "estimated_diameter_min" : 48.3676488219,
          "estimated_diameter_max" : 108.1533506775
        },
        "miles" : {
          "estimated_diameter_min" : 0.0300542543,
          "estimated_diameter_max" : 0.0672033557
        },
        "feet" : {
          "estimated_diameter_min" : 158.6865169607,
          "estimated_diameter_max" : 354.8338390368
        }
      },
      "is_potentially_hazardous_asteroid" : false,
      "close_approach_data" : [ {
        "close_approach_date" : "2007-01-08",
        "epoch_date_close_approach" : 1168243200000,
        "relative_velocity" : {
          "kilometers_per_second" : "9.091803392",
          "kilometers_per_hour" : "32730.4922111869",
          "miles_per_hour" : "20337.4550075567"
        },
        "miss_distance" : {
          "astronomical" : "0.4749564002",
          "lunar" : "184.7580413818",
          "kilometers" : "71052464",
          "miles" : "44149956"
        },
        "orbiting_body" : "Earth"
      } ],
      "orbital_data" : {
        "orbit_id" : "25",
        "orbit_determination_date" : "2017-04-06 08:32:34",
        "orbit_uncertainty" : "3",
        "minimum_orbit_intersection" : ".0127891",
        "jupiter_tisserand_invariant" : "5.228",
        "epoch_osculation" : "2458000.5",
        "eccentricity" : ".2344278310671598",
        "semi_major_axis" : "1.207581253511611",
        "inclination" : "11.12766212300658",
        "ascending_node_longitude" : "316.2276656924995",
        "orbital_period" : "484.6999450590524",
        "perihelion_distance" : ".9244905994135222",
        "perihelion_argument" : "296.815399670071",
        "aphelion_distance" : "1.4906719076097",
        "perihelion_time" : "2458158.222974931467",
        "mean_anomaly" : "242.854802122145",
        "mean_motion" : ".7427275444731898",
        "equinox" : "J2000"
      }
    } ]
  }
}